*******************************************************************************
JPL/HORIZONS                       1 Ceres                 2017-Sep-08 05:44:34
Rec #:     1 (+COV)   Soln.date: 2017-Apr-04_16:23:28   # obs: 5993 (1950-2017)
 
IAU76/J2000 helio. ecliptic osc. elements (au, days, deg., period=Julian yrs): 
 
  EPOCH=  2449731.5 ! 1995-Jan-14.00 (TDB)         Residual RMS= .3289         
   EC= .07610292126891821  QR= 2.556624726195814   TP= 2449823.0922807939      
   OM= 80.65851514365535   W=  71.44921526124109   IN= 10.60069567603618       
   A= 2.767218108003098    MA= 340.389084821267    ADIST= 2.977811489810382    
   PER= 4.60334            N= .214110998           ANGMOM= .028532632          
   DAN= 2.68615            DDN= 2.81946            L= 151.8082012              
   B= 10.0440306           MOID= 1.59241998        TP= 1995-Apr-15.5922807939  
 
Asteroid physical parameters (km, seconds, rotational period in hours):        
   GM= 62.6284             RAD= 469.7              ROTPER= 9.07417             
   H= 3.34                 G= .120                 B-V= .713                   
                           ALBEDO= .090            STYP= C                     
 
ASTEROID comments: 
1: soln ref.= JPL#34, OCC=0           radar(405 delay, 0 Dop.
2: source=ORB
*******************************************************************************
 
 
*******************************************************************************
Ephemeris / WWW_USER Fri Sep  8 05:44:34 2017 Pasadena, USA      / Horizons    
*******************************************************************************
Target body name: 1 Ceres                         {source: JPL#34}
Center body name: Earth (399)                     {source: DE431}
Center-site name: Gemini South Obs., Cerro Pachon
*******************************************************************************
Start time      : A.D. 2017-Aug-01 00:00:00.0000 UT      
Stop  time      : A.D. 2018-Feb-01 00:00:00.0000 UT      
Step-size       : 100 steps
*******************************************************************************
Target pole/equ : IAU                             {East-longitude -}
Target radii    : 487.3 x 487.3 x 454.7 km        {Equator, meridian, pole}    
Center geodetic : 289.263400,-30.240623,2.7123285 {E-lon(deg),Lat(deg),Alt(km)}
Center cylindric: 289.263400,5517.21435,-3194.812 {E-lon(deg),Dxy(km),Dz(km)}
Center pole/equ : High-precision EOP model        {East-longitude +}
Center radii    : 6378.1 x 6378.1 x 6356.8 km     {Equator, meridian, pole}    
Target primary  : Sun
Vis. interferer : MOON (R_eq= 1737.400) km        {source: DE431}
Rel. light bend : Sun, EARTH                      {source: DE431}
Rel. lght bnd GM: 1.3271E+11, 3.9860E+05 km^3/s^2                              
Small-body perts: Yes                             {source: SB431-N16}
Atmos refraction: NO (AIRLESS)
RA format       : HMS
Time format     : CAL 
EOP file        : eop.170907.p171129                                           
EOP coverage    : DATA-BASED 1962-JAN-20 TO 2017-SEP-07. PREDICTS-> 2017-NOV-28
Units conversion: 1 au= 149597870.700 km, c= 299792.458 km/s, 1 day= 86400.0 s 
Table cut-offs 1: Elevation (-90.0deg=NO ),Airmass (>38.000=NO), Daylight (NO )
Table cut-offs 2: Solar elongation (  0.0,180.0=NO ),Local Hour Angle( 0.0=NO )
Table cut-offs 3: RA/DEC angular rate (     0.0=NO )                           
*******************************************************************************
Initial IAU76/J2000 heliocentric ecliptic osculating elements (au, days, deg.):
  EPOCH=  2449731.5 ! 1995-Jan-14.00 (TDB)         Residual RMS= .3289         
   EC= .07610292126891821  QR= 2.556624726195814   TP= 2449823.0922807939      
   OM= 80.65851514365535   W=  71.44921526124109   IN= 10.60069567603618       
  Equivalent ICRF heliocentric equatorial cartesian coordinates (au, au/d):
   X=-1.595314070299652E+00  Y= 1.679592434318194E+00  Z= 1.115015709161572E+00
  VX=-8.276811304306792E-03 VY=-7.202858709771250E-03 VZ=-1.698003095770422E-03
Asteroid physical parameters (km, seconds, rotational period in hours):        
   GM= 62.6284             RAD= 469.7              ROTPER= 9.07417             
   H= 3.34                 G= .120                 B-V= .713                   
                           ALBEDO= .090            STYP= C                     
*******************************************************************************
 Date__(UT)__HR:MN:SC.fff     R.A.___(ICRF/J2000.0)___DEC
*********************************************************
$$SOE
 2017-Aug-01 00:00:00.000  m  06 38 09.5151 +24 12 20.292
 2017-Aug-02 20:09:36.000 *m  06 41 28.7671 +24 12 58.899
 2017-Aug-04 16:19:12.000 *   06 44 47.7154 +24 13 24.383
 2017-Aug-06 12:28:48.000 *   06 48 06.2543 +24 13 36.360
 2017-Aug-08 08:38:24.000  m  06 51 24.2199 +24 13 35.111
 2017-Aug-10 04:48:00.000  m  06 54 41.5122 +24 13 21.564
 2017-Aug-12 00:57:36.000     06 57 58.1600 +24 12 56.714
 2017-Aug-13 21:07:12.000 *   07 01 14.2682 +24 12 20.987
 2017-Aug-15 17:16:48.000 *   07 04 29.8934 +24 11 34.126
 2017-Aug-17 13:26:24.000 *m  07 07 44.9591 +24 10 35.710
 2017-Aug-19 09:36:00.000  m  07 10 59.2865 +24 09 25.837
 2017-Aug-21 05:45:36.000     07 14 12.7156 +24 08 05.354
 2017-Aug-23 01:55:12.000     07 17 25.2090 +24 06 35.425
 2017-Aug-24 22:04:48.000 *m  07 20 36.8467 +24 04 56.825
 2017-Aug-26 18:14:24.000 *m  07 23 47.7148 +24 03 09.577
 2017-Aug-28 14:24:00.000 *   07 26 57.7909 +24 01 13.290
 2017-Aug-30 10:33:36.000 N   07 30 06.9281 +23 59 07.870
 2017-Sep-01 06:43:12.000  m  07 33 14.9532 +23 56 53.986
 2017-Sep-03 02:52:48.000  m  07 36 21.7923 +23 54 32.867
 2017-Sep-04 23:02:24.000 Nm  07 39 27.5080 +23 52 05.596
 2017-Sep-06 19:12:00.000 *   07 42 32.2147 +23 49 32.555
 2017-Sep-08 15:21:36.000 *   07 45 35.9451 +23 46 53.503
 2017-Sep-10 11:31:12.000 *m  07 48 38.5872 +23 44 08.243
 2017-Sep-12 07:40:48.000  m  07 51 39.9478 +23 41 17.263
 2017-Sep-14 03:50:24.000     07 54 39.8868 +23 38 21.796
 2017-Sep-16 00:00:00.000     07 57 38.4006 +23 35 23.217
 2017-Sep-17 20:09:36.000 *m  08 00 35.5806 +23 32 22.330
 2017-Sep-19 16:19:12.000 *m  08 03 31.4822 +23 29 19.177
 2017-Sep-21 12:28:48.000 *m  08 06 26.0248 +23 26 13.540
 2017-Sep-23 08:38:24.000     08 09 19.0131 +23 23 05.693
 2017-Sep-25 04:48:00.000     08 12 10.2629 +23 19 56.730
 2017-Sep-27 00:57:36.000  m  08 14 59.7218 +23 16 48.164
 2017-Sep-28 21:07:12.000 *m  08 17 47.4729 +23 13 41.153
 2017-Sep-30 17:16:48.000 *   08 20 33.6193 +23 10 36.055
 2017-Oct-02 13:26:24.000 *   08 23 18.1487 +23 07 32.705
 2017-Oct-04 09:36:00.000 Nm  08 26 00.9007 +23 04 31.181
 2017-Oct-06 05:45:36.000  m  08 28 41.6658 +23 01 32.378
 2017-Oct-08 01:55:12.000  m  08 31 20.3273 +22 58 37.874
 2017-Oct-09 22:04:48.000 *   08 33 56.9178 +22 55 49.203
 2017-Oct-11 18:14:24.000 *   08 36 31.5375 +22 53 07.183
 2017-Oct-13 14:24:00.000 *m  08 39 04.2049 +22 50 31.903
 2017-Oct-15 10:33:36.000 *m  08 41 34.7739 +22 48 03.382
 2017-Oct-17 06:43:12.000     08 44 02.9939 +22 45 42.321
 2017-Oct-19 02:52:48.000     08 46 28.6619 +22 43 30.260
 2017-Oct-20 23:02:24.000 Cm  08 48 51.7345 +22 41 28.991
 2017-Oct-22 19:12:00.000 *m  08 51 12.2980 +22 39 39.740
 2017-Oct-24 15:21:36.000 *m  08 53 30.4223 +22 38 02.852
 2017-Oct-26 11:31:12.000 *   08 55 46.0284 +22 36 38.261
 2017-Oct-28 07:40:48.000     08 57 58.8880 +22 35 26.345
 2017-Oct-30 03:50:24.000  m  09 00 08.7573 +22 34 28.396
 2017-Nov-01 00:00:00.000 Nm  09 02 15.5274 +22 33 46.285
 2017-Nov-02 20:09:36.000 *   09 04 19.2538 +22 33 21.617
 2017-Nov-04 16:19:12.000 *   09 06 20.0365 +22 33 15.118
 2017-Nov-06 12:28:48.000 *   09 08 17.8519 +22 33 26.817
 2017-Nov-08 08:38:24.000 Am  09 10 12.4864 +22 33 56.878
 2017-Nov-10 04:48:00.000     09 12 03.6328 +22 34 46.334
 2017-Nov-12 00:57:36.000     09 13 51.0667 +22 35 57.069
 2017-Nov-13 21:07:12.000 *   09 15 34.7458 +22 37 31.032
 2017-Nov-15 17:16:48.000 *m  09 17 14.7447 +22 39 29.377
 2017-Nov-17 13:26:24.000 *m  09 18 51.0825 +22 41 52.264
 2017-Nov-19 09:36:00.000 C   09 20 23.5970 +22 44 39.525
 2017-Nov-21 05:45:36.000     09 21 51.9804 +22 47 51.604
 2017-Nov-23 01:55:12.000  m  09 23 15.9476 +22 51 29.937
 2017-Nov-24 22:04:48.000 *m  09 24 35.3890 +22 55 36.411
 2017-Nov-26 18:14:24.000 *m  09 25 50.3715 +23 00 12.373
 2017-Nov-28 14:24:00.000 *   09 27 00.9826 +23 05 18.047
 2017-Nov-30 10:33:36.000 *   09 28 07.1533 +23 10 52.897
 2017-Dec-02 06:43:12.000  m  09 29 08.6163 +23 16 56.644
 2017-Dec-04 02:52:48.000  m  09 30 05.0371 +23 23 30.031
 2017-Dec-05 23:02:24.000 *   09 30 56.2029 +23 30 34.657
 2017-Dec-07 19:12:00.000 *   09 31 42.1037 +23 38 11.980
 2017-Dec-09 15:21:36.000 *m  09 32 22.8312 +23 46 22.343
 2017-Dec-11 11:31:12.000 *m  09 32 58.3842 +23 55 04.881
 2017-Dec-13 07:40:48.000  m  09 33 28.5527 +24 04 18.394
 2017-Dec-15 03:50:24.000     09 33 52.9916 +24 14 02.418
 2017-Dec-17 00:00:00.000 C   09 34 11.4239 +24 24 17.526
 2017-Dec-18 20:09:36.000 *m  09 34 23.7990 +24 35 04.560
 2017-Dec-20 16:19:12.000 *m  09 34 30.2653 +24 46 23.440
 2017-Dec-22 12:28:48.000 *   09 34 30.9782 +24 58 12.589
 2017-Dec-24 08:38:24.000 A   09 34 25.9121 +25 10 29.506
 2017-Dec-26 04:48:00.000     09 34 14.8425 +25 23 12.007
 2017-Dec-28 00:57:36.000 Am  09 33 57.5192 +25 36 19.058
 2017-Dec-29 21:07:12.000 *m  09 33 33.8789 +25 49 50.443
 2017-Dec-31 17:16:48.000 *   09 33 04.1098 +26 03 45.545
 2018-Jan-02 13:26:24.000 *   09 32 28.5065 +26 18 02.274
 2018-Jan-04 09:36:00.000 Cm  09 31 47.2415 +26 32 37.117
 2018-Jan-06 05:45:36.000  m  09 31 00.2554 +26 47 26.255
 2018-Jan-08 01:55:12.000     09 30 07.3688 +27 02 26.826
 2018-Jan-09 22:04:48.000 *   09 29 08.5228 +27 17 37.182
 2018-Jan-11 18:14:24.000 *m  09 28 03.9437 +27 32 55.895
 2018-Jan-13 14:24:00.000 *m  09 26 54.0912 +27 48 20.364
 2018-Jan-15 10:33:36.000 *m  09 25 39.4346 +28 03 46.250
 2018-Jan-17 06:43:12.000     09 24 20.2505 +28 19 08.303
